MICROSAT-R              
1 43947U 19006A   19098.70237998  .00070438  19461-5  89301-4 0  9998
2 43947  96.6359  11.9520 0100469 240.4102 118.5483 15.98063248 11826
MICROSAT-R DEB          
1 44117U 19006C   19098.22061331  .00394387  19965-4  69015-2 0  9999
2 44117  95.3225   6.2149 0848944 339.1746  17.6679 13.98806310  1654
MICROSAT-R DEB          
1 44118U 19006D   19096.73321078  .04639119  13934-1  32860-1 0  9994
2 44118  96.1506   8.1508 0212801 349.7777   9.9181 15.51650986  1574
MICROSAT-R DEB          
1 44119U 19006E   19094.46646588  .06439739  12728-5  97304-2 0  9996
2 44119  94.9178   4.6437 0181254  28.4691 332.6337 15.80679644  1248
MICROSAT-R DEB          
1 44120U 19006F   19098.46664683  .00499221  47603-4  52421-2 0  9994
2 44120  95.5083   7.9142 0408497 345.5722  13.4115 15.02686224  1828
MICROSAT-R DEB          
1 44121U 19006G   19097.98513244  .01304671  39253-3  11651-1 0  9992
2 44121  95.5792   7.8454 0327931 344.4643  14.6712 15.22397805  1769
MICROSAT-R DEB          
1 44122U 19006H   19094.75258187  .01086181  27867-3  91501-2 0  9991
2 44122  95.6006   5.5919 0297801 357.2150   2.7421 15.29557898  1264
MICROSAT-R DEB          
1 44123U 19006J   19098.53728077  .00849084  16721-3  62137-2 0  9990
2 44123  96.9444  11.1219 0308083 315.8089  41.8910 15.30122346  1857
MICROSAT-R DEB          
1 44124U 19006K   19098.32459851  .03169919  42135-2  19732-1 0  9993
2 44124  95.5224   8.2044 0211224 344.2870  15.1895 15.52790062  1829
MICROSAT-R DEB          
1 44125U 19006L   19098.16354966  .01536393  61875-3  11862-1 0  9998
2 44125  95.4420   7.8584 0276056 343.9075  15.3529 15.35595573  1780
MICROSAT-R DEB          
1 44126U 19006M   19094.58326523  .03116733  28646-2  27747-1 0  9990
2 44126  95.4679   5.2200 0335316 358.4564   3.3570 15.21318838  1238
MICROSAT-R DEB          
1 44127U 19006N   19095.03666368  .02187619  17695-2  13453-1 0  9997
2 44127  96.0706   6.8319 0171368 349.2468  10.5144 15.59755513  1133
MICROSAT-R DEB          
1 44128U 19006P   19098.34027815  .00468210  65519-4  26800-2 0  9991
2 44128  96.2810  10.2697 0137578 341.8228  17.8142 15.66403844  1668
MICROSAT-R DEB          
1 44129U 19006Q   19098.30577541  .02152346  21700-2  88469-2 0  9997
2 44129  96.2410  10.1211 0107154 334.3595  25.2382 15.77894461  1656
MICROSAT-R DEB          
1 44130U 19006R   19098.20250436  .00133749  53891-5  12421-2 0  9997
2 44130  96.3334   9.7586 0277123 335.2088  23.6044 15.31729302  1618
MICROSAT-R DEB          
1 44131U 19006S   19098.52233260  .00692543  64273-4  11470-1 0  9998
2 44131  95.4875   6.8427 0772183 339.7842  17.4238 14.16420648  1387
MICROSAT-R DEB          
1 44132U 19006T   19094.73963079  .12979788  19429-5  11454-1 0  9994
2 44132  96.4009   7.4170 0027412 339.9728  20.0480 16.12094571   954
MICROSAT-R DEB          
1 44133U 19006U   19098.19101016  .00116880  44623-5  99309-3 0  9998
2 44133  96.4925   9.9561 0321323 318.1224  39.5831 15.24698210  1443
MICROSAT-R DEB          
1 44134U 19006V   19096.99841368  .00050591  15520-5  78862-3 0  9997
2 44134  96.0911   7.1946 0662228 343.0900  14.9128 14.41390689  1197
MICROSAT-R DEB          
1 44135U 19006W   19094.87046930  .02680902  37410-2  12244-1 0  9991
2 44135  96.2107   7.1091 0112268 355.6726   4.3559 15.75469894   954
MICROSAT-R DEB          
1 44136U 19006X   19097.98206451  .00639809  94219-4  54052-2 0  9997
2 44136  94.5719   6.1369 0279092 343.0109  16.1932 15.33180524  1419
MICROSAT-R DEB          
1 44137U 19006Y   19094.80053007  .03433409  10222-1  12967-1 0  9991
2 44137  96.1784   7.0131 0082221 347.2816  12.6380 15.84654719   958
MICROSAT-R DEB          
1 44138U 19006Z   19098.50594680  .04869332  19892-5  24011-3 0  9990
2 44138  96.6566  11.9672 0072824 245.7328 113.6350 16.30766368  1578
MICROSAT-R DEB          
1 44139U 19006AA  19098.30386663  .02337615  31201-2  66934-2 0  9995
2 44139  95.4589   8.6487 0096051 298.6223  60.5416 15.86333148  1509
MICROSAT-R DEB          
1 44140U 19006AB  19098.18978537  .00826612  11500-3  87743-2 0  9990
2 44140  95.6340   7.5574 0542301 353.4984   5.9379 14.74106694  1759
MICROSAT-R DEB          
1 44141U 19006AC  19098.33546482  .00866139  12179-3  11245-1 0  9992
2 44141  96.0971   8.3684 0567426 345.4650  13.0798 14.65040973  1765
MICROSAT-R DEB          
1 44142U 19006AD  19098.28418081  .00405996  24692-4  60349-2 0  9994
2 44142  96.5868   8.9388 0665933 335.7633  21.3513 14.41357444  1730
MICROSAT-R DEB          
1 44143U 19006AE  19095.36032885  .18631081  21223-5  43624-2 0  9995
2 44143  96.7866   8.8186 0020675 270.3026  89.5900 16.29144635  1352
MICROSAT-R DEB          
1 44144U 19006AF  19098.30976367  .00389481  50612-4  17340-2 0  9999
2 44144  95.6337   9.0958 0086744 334.2912  25.4058 15.78571567  1159
MICROSAT-R DEB          
1 44145U 19006AG  19098.22520128  .01483278  41315-3  15146-1 0  9991
2 44145  95.6402   7.6471 0494340 351.6228   7.6951 14.85113298  1069
MICROSAT-R DEB          
1 44146U 19006AH  19097.85325306  .00084615  19136-5  13474-3 0  9994
2 44146  96.5906  10.9564 0102675 252.4466 106.5574 15.94340718  1080
MICROSAT-R DEB          
1 44147U 19006AJ  19098.51756749  .00182532  52807-5  26905-2 0  9999
2 44147  95.7659   7.4206 0769688 351.1065   7.7103 14.19073276  1051
MICROSAT-R DEB          
1 44148U 19006AK  19098.21868320  .00275185  26733-4  10144-2 0  9999
2 44148  96.6477  11.1751 0094653 295.2363  63.9119 15.81228398  1125
MICROSAT-R DEB          
1 44149U 19006AL  19098.32837806  .00126019  55593-5  81790-3 0  9991
2 44149  96.1007   9.7886 0179382 350.8692   8.9315 15.57017711  1123
MICROSAT-R DEB          
1 44150U 19006AM  19094.24965542  .03380564  82179-2  13716-1 0  9997
2 44150  96.1314   6.4062 0109734 347.4104  13.2096 15.79057773   490
MICROSAT-R DEB          
1 44151U 19006AN  19095.07776720  .01139469  39308-3  70293-2 0  9993
2 44151  96.1917   7.1013 0175670 351.4915   8.3374 15.58677746   614
MICROSAT-R DEB          
1 44152U 19006AP  19098.20503558  .00240531  13562-4  21768-2 0  9999
2 44152  95.0620   7.2781 0274993 339.4776  19.5589 15.32623890  1083
MICROSAT-R DEB          
1 44153U 19006AQ  19098.17990673  .00305755  20817-4  26636-2 0  9994
2 44153  95.0663   7.2088 0301745 348.3408  11.0949 15.28099040  1073
MICROSAT-R DEB          
1 44154U 19006AR  19098.49239134  .00482924  23921-4  10888-1 0  9992
2 44154  96.7116   7.4715 1275251 344.8390  11.7606 13.02213424   955
MICROSAT-R DEB          
1 44155U 19006AS  19097.99951827  .00229893  15516-4  15103-2 0  9998
2 44155  96.0151   9.3520 0161960 334.0179  25.3012 15.59707236  1067
MICROSAT-R DEB          
1 44156U 19006AT  19094.69707226  .05553740  38015-1  26327-1 0  9996
2 44156  96.2572   7.0051 0089971 352.8442   7.1537 15.81344557   554
MICROSAT-R DEB          
1 44157U 19006AU  19098.50919161  .00393528  19722-4  50225-2 0  9997
2 44157  95.4363   6.5818 0878626 356.9828   2.6238 13.97773002  1022
MICROSAT-R DEB          
1 44158U 19006AV  19098.21897344  .00154811  77022-5  10980-2 0  9996
2 44158  96.3260  10.1092 0180797 327.7064  31.3223 15.54984269  1091
MICROSAT-R DEB          
1 44159U 19006AW  19094.28069964  .19725928  20102-5  90541-2 0  9990
2 44159  96.3840   7.0147 0022156 342.7524  17.3012 16.21252300   496
MICROSAT-R DEB          
1 44160U 19006AX  19098.07306737  .00188900  48673-5  34693-2 0  9997
2 44160  95.3198   5.8682 0970787 338.3666  17.8971 13.71547767   948
MICROSAT-R DEB          
1 44161U 19006AY  19098.17573175  .00100023  45350-5  31944-3 0  9997
2 44161  96.2740  10.1881 0187756 283.9275  74.1170 15.68324723  1096
MICROSAT-R DEB          
1 44162U 19006AZ  19098.37517967  .00727701  83291-4  97812-2 0  9995
2 44162  96.0370   8.2267 0591309 345.5091  12.9768 14.59273316  1042
MICROSAT-R DEB          
1 44163U 19006BA  19098.37364861  .00920315  18295-3  85406-2 0  9992
2 44163  95.5025   7.9937 0340891 344.7905  14.3276 15.18999370   935
MICROSAT-R DEB          
1 44164U 19006BB  19098.22281694  .00150163  57878-5  16123-2 0  9997
2 44164  96.6766  10.0152 0398976 327.3077  30.4010 15.04277932   908
MICROSAT-R DEB          
1 44165U 19006BC  19098.35708556  .00221548  14333-4  13936-2 0  9996
2 44165  96.7314  11.0334 0197541 311.7118  46.7382 15.54380390   955
MICROSAT-R DEB          
1 44166U 19006BD  19098.21512476  .00311047  11420-4  61550-2 0  9999
2 44166  95.7127   6.4009 1034252 348.1363   9.7005 13.56484842   813
MICROSAT-R DEB          
1 44167U 19006BE  19098.17794469  .01790739  13259-2  78320-2 0  9992
2 44167  95.6958   8.9064 0115515 321.8686  37.4448 15.75307254   936
MICROSAT-R DEB          
1 44168U 19006BF  19095.04961209  .00527696  86952-4  28336-2 0  9997
2 44168  96.3473   7.5037 0118347 350.9074   9.0046 15.70583958   449
MICROSAT-R DEB          
1 44169U 19006BG  19098.52652232  .00247375  22413-4  79717-3 0  9992
2 44169  97.2617  12.7925 0106309 284.5245  74.4250 15.82076279   844
MICROSAT-R DEB          
1 44170U 19006BH  19094.29776842  .01477004  51465-3  13916-1 0  9998
2 44170  94.7415   4.0349 0321201 354.4045   5.3637 15.22743226   167
MICROSAT-R DEB          
1 44171U 19006BJ  19098.33515230  .00760617  13977-3  61268-2 0  9994
2 44171  95.6659   8.5599 0260504 344.5427  14.7969 15.37735261   782
MICROSAT-R DEB          
1 44172U 19006BK  19093.24832937  .06491989  10561-5  62839-2 0  9998
2 44172  94.5693   3.5604 0110923  40.5090 320.5757 15.99896821    05
MICROSAT-R DEB          
1 44173U 19006BL  19093.25107377  .00092895  25285-5  10000-2 0  9992
2 44173  95.4100   4.1032 0410196   3.5176 356.9078 15.01902668    09
MICROSAT-R DEB          
1 44174U 19006BM  19098.53844753  .02673383  25026-2  17743-1 0  9994
2 44174  95.5264   8.3362 0235971 342.8479  16.4894 15.46587815  1844
MICROSAT-R DEB          
1 44175U 19006BN  19098.56628612  .00221741  18516-4  72541-3 0  9994
2 44175  96.6198  11.5196 0084357 286.3680  72.8330 15.84806467  1198
MICROSAT-R DEB          
1 44176U 19006BP  19098.18859389  .01856988  13914-2  87197-2 0  9995
2 44176  96.1292   9.7461 0126060 335.6236  23.8237 15.72360466  1100
MICROSAT-R DEB          
1 44177U 19006BQ  19098.24186246  .00123335  19109-5  20178-3 0  9992
2 44177  96.5878  11.2999 0106752 255.3240 103.6184 15.93244871  1122
MICROSAT-R DEB          
1 44178U 19006BR  19098.54939420  .00543238  61460-4  52642-2 0  9990
2 44178  96.1932   9.4999 0346418 344.5537  14.5328 15.17025168  1115
MICROSAT-R DEB          
1 44179U 19006BS  19098.57856409  .00098662  38383-5  72423-3 0  9994
2 44179  96.1413   9.9739 0208308 346.8970  12.6919 15.49439973   839
MICROSAT-R DEB          
1 44180U 19006BT  19097.26778275  .00561316  62986-4  59168-2 0  9991
2 44180  94.7127   5.7523 0365108 338.4212  20.0406 15.11578125   612
MICROSAT-R DEB          
1 44181U 19006BU  19098.53706569  .00421898  63208-4  15826-2 0  9991
2 44181  96.5142  11.1954 0073396 334.3562  25.4077 15.83497831   680
MICROSAT-R DEB          
1 44182U 19006BV  19098.55562245  .00913829  24994-3  54754-2 0  9996
2 44182  96.1029   9.9258 0164740 336.9275  22.4581 15.61099035   672
MICROSAT-R DEB          
1 44183U 19006BW  19098.45833700  .00828050  18163-3  59909-2 0  9992
2 44183  96.0008   9.4594 0214586 337.9904  21.1988 15.48530275   657
MICROSAT-R DEB          
1 44184U 19006BX  19098.21923187  .00386967  53387-4  85089-3 0  9999
2 44184  97.6555  13.2580 0141802 276.4580  82.0210 15.82689707   553
MICROSAT-R DEB          
1 44185U 19006BY  19098.52679713  .00665698  12992-3  39915-2 0  9990
2 44185  96.0571   9.8708 0156215 332.5628  26.7415 15.62489685   596
